COMMENT,ORIGINATOR,NORAD_CAT_ID,OBJECT_NAME,OBJECT_TYPE,CLASSIFICATION_TYPE,INTLDES,EPOCH,EPOCH_MICROSECONDS,MEAN_MOTION,ECCENTRICITY,INCLINATION,RA_OF_ASC_NODE,ARG_OF_PERICENTER,MEAN_ANOMALY,EPHEMERIS_TYPE,ELEMENT_SET_NO,REV_AT_EPOCH,BSTAR,MEAN_MOTION_DOT,MEAN_MOTION_DDOT,FILE,TLE_LINE0,TLE_LINE1,TLE_LINE2,OBJECT_ID,OBJECT_NUMBER,SEMIMAJOR_AXIS,PERIOD,APOGEE,PERIGEE,DECAYED
GENERATED VIA SPACETRACK.ORG API,18 SPCS,50803,STARLINK-3321,PAYLOAD,U,22001A,2023-11-01 17:16:37,299360,15.08847371,0.0001226,53.2173,65.1847,88.8824,271.2309,0,999,10073,0.00039734,6.043e-05,0.0,4065398,0 STARLINK-3321,1 50803U 22001A   23305.71987615  .00006043  00000-0  39734-3 0  9990,2 50803  53.2173  65.1847 0001226  88.8824 271.2309 15.08847371100738,2022-001A,50803,6917.858,95.437,540.571,538.875,1
GENERATED VIA SPACETRACK.ORG API,18 SPCS,50803,STARLINK-3321,PAYLOAD,U,22001A,2023-11-02 12:21:15,311520,15.08842145,0.0001277,53.2176,61.6161,84.8521,275.2617,0,999,10212,0.00021415,3.122e-05,0.0,4066091,0 STARLINK-3321,1 50803U 22001A   23306.51476055  .00003122  00000-0  21415-3 0  9992,2 50803  53.2176  61.6161 0001277  84.8521 275.2617 15.08842145102122,2022-001A,50803,6917.874,95.437,540.622,538.855,1
GENERATED VIA SPACETRACK.ORG API,18 SPCS,50803,STARLINK-3321,PAYLOAD,U,22001A,2023-11-02 13:56:38,388768,15.08841111,0.0001275,53.2177,61.3171,102.6454,257.468,0,999,10086,0.00027001,4.012e-05,0.0,4066590,0 STARLINK-3321,1 50803U 22001A   23306.58099987  .00004012  00000-0  27001-3 0  9990,2 50803  53.2177  61.3171 0001275 102.6454 257.4680 15.08841111100866,2022-001A,50803,6917.877,95.437,540.624,538.86,1
GENERATED VIA SPACETRACK.ORG API,18 SPCS,50803,STARLINK-3321,PAYLOAD,U,22001A,2023-11-02 15:32:01,475520,15.08845985,0.000132,53.2175,61.0203,98.4291,261.6851,0,999,10087,0.00041367,6.303e-05,0.0,4067000,0 STARLINK-3321,1 50803U 22001A   23306.64723930  .00006303  00000-0  41367-3 0  9995,2 50803  53.2175  61.0203 0001320  98.4291 261.6851 15.08845985100870,2022-001A,50803,6917.862,95.437,540.64,538.814,1
GENERATED VIA SPACETRACK.ORG API,18 SPCS,50803,STARLINK-3321,PAYLOAD,U,22001A,2023-11-03 13:47:25,528128,15.08847333,0.0001454,53.2169,56.859,88.2575,271.8584,0,999,10101,0.00055062,8.488e-05,0.0,4068165,0 STARLINK-3321,1 50803U 22001A   23307.57460102  .00008488  00000-0  55062-3 0  9990,2 50803  53.2169  56.8590 0001454  88.2575 271.8584 15.08847333101016,2022-001A,50803,6917.858,95.437,540.729,538.717,1
GENERATED VIA SPACETRACK.ORG API,18 SPCS,50803,STARLINK-3321,PAYLOAD,U,22001A,2023-11-03 13:47:25,528128,15.08847333,0.0001454,53.2169,56.859,88.2575,271.8584,0,999,10228,0.00055062,8.488e-05,0.0,4068224,0 STARLINK-3321,1 50803U 22001A   23307.57460102  .00008488  00000-0  55062-3 0  9990,2 50803  53.2169  56.8590 0001454  88.2575 271.8584 15.08847333102286,2022-001A,50803,6917.858,95.437,540.729,538.717,1
GENERATED VIA SPACETRACK.ORG API,18 SPCS,50803,STARLINK-3321,PAYLOAD,U,22001A,2023-11-04 00:55:07,583808,15.08844941,0.0001428,53.2172,54.7788,82.7691,277.3463,0,999,10235,0.00043184,6.592e-05,0.0,4069156,0 STARLINK-3321,1 50803U 22001A   23308.03828222  .00006592  00000-0  43184-3 0  9999,2 50803  53.2172  54.7788 0001428  82.7691 277.3463 15.08844941102352,2022-001A,50803,6917.865,95.437,540.718,538.742,1
GENERATED VIA SPACETRACK.ORG API,18 SPCS,50803,STARLINK-3321,PAYLOAD,U,22001A,2023-11-04 13:38:12,681312,15.0884469,0.000145,53.2169,52.399,92.4571,267.6587,0,999,10116,0.00018869,2.717e-05,0.0,4070271,0 STARLINK-3321,1 50803U 22001A   23308.56820233  .00002717  00000-0  18869-3 0  9998,2 50803  53.2169  52.3990 0001450  92.4571 267.6587 15.08844690101165,2022-001A,50803,6917.866,95.437,540.734,538.728,1
GENERATED VIA SPACETRACK.ORG API,18 SPCS,50803,STARLINK-3321,PAYLOAD,U,22001A,2023-11-04 13:38:12,681312,15.0884469,0.000145,53.2169,52.399,92.4571,267.6587,0,999,10243,0.00018869,2.717e-05,0.0,4070316,0 STARLINK-3321,1 50803U 22001A   23308.56820233  .00002717  00000-0  18869-3 0  9998,2 50803  53.2169  52.3990 0001450  92.4571 267.6587 15.08844690102436,2022-001A,50803,6917.866,95.437,540.734,538.728,1
GENERATED VIA SPACETRACK.ORG API,18 SPCS,50803,STARLINK-3321,PAYLOAD,U,22001A,2023-11-05 13:28:59,13696,15.08864195,0.0001448,53.2182,47.9367,90.9058,269.21,0,999,10131,0.00055937,8.631e-05,0.0,4072138,0 STARLINK-3321,1 50803U 22001A   23309.56179414  .00008631  00000-0  55937-3 0  9995,2 50803  53.2182  47.9367 0001448  90.9058 269.2100 15.08864195101316,2022-001A,50803,6917.806,95.436,540.673,538.67,1
GENERATED VIA SPACETRACK.ORG API,18 SPCS,50803,STARLINK-3321,PAYLOAD,U,22001A,2023-11-05 13:28:59,13696,15.08864195,0.0001448,53.2182,47.9367,90.9058,269.21,0,999,10258,0.00055937,8.631e-05,0.0,4072365,0 STARLINK-3321,1 50803U 22001A   23309.56179414  .00008631  00000-0  55937-3 0  9995,2 50803  53.2182  47.9367 0001448  90.9058 269.2100 15.08864195102586,2022-001A,50803,6917.806,95.436,540.673,538.67,1
GENERATED VIA SPACETRACK.ORG API,18 SPCS,50803,STARLINK-3321,PAYLOAD,U,22001A,2023-11-06 11:44:22,549632,15.08796112,0.0001387,53.2172,43.7739,43.7574,316.3528,0,999,10272,-0.0022192,-0.00035391,0.0,4073851,0 STARLINK-3321,1 50803U 22001A   23310.48914988 -.00035391  00000-0 -22192-2 0  9992,2 50803  53.2172  43.7739 0001387  43.7574 316.3528 15.08796112102720,2022-001A,50803,6918.015,95.44,540.839,538.92,1
GENERATED VIA SPACETRACK.ORG API,18 SPCS,50803,STARLINK-3321,PAYLOAD,U,22001A,2023-11-06 13:19:45,831648,15.0879269,0.0001257,53.2191,43.4734,75.5281,284.5851,0,999,10146,-0.0021832,-0.00034821,0.0,4074285,0 STARLINK-3321,1 50803U 22001A   23310.55539157 -.00034821  00000-0 -21832-2 0  9998,2 50803  53.2191  43.4734 0001257  75.5281 284.5851 15.08792690101469,2022-001A,50803,6918.025,95.441,540.76,539.02,1
GENERATED VIA SPACETRACK.ORG API,18 SPCS,50803,STARLINK-3321,PAYLOAD,U,22001A,2023-11-06 22:52:06,657312,15.08803378,0.0001226,53.2195,41.6928,84.7522,275.361,0,999,10279,-0.00066347,-0.00010821,0.0,4075161,0 STARLINK-3321,1 50803U 22001A   23310.95285483 -.00010821  00000-0 -66347-3 0  9997,2 50803  53.2195  41.6928 0001226  84.7522 275.3610 15.08803378102798,2022-001A,50803,6917.992,95.44,540.705,539.009,1
GENERATED VIA SPACETRACK.ORG API,18 SPCS,50803,STARLINK-3321,PAYLOAD,U,22001A,2023-11-07 11:35:12,781248,15.08826481,0.0001326,53.2187,39.3136,78.7539,281.3602,0,999,10287,0.0022915,0.00036356,0.0,4075845,0 STARLINK-3321,1 50803U 22001A   23311.48278682  .00036356  00000-0  22915-2 0  9990,2 50803  53.2187  39.3136 0001326  78.7539 281.3602 15.08826481102873,2022-001A,50803,6917.922,95.438,540.704,538.869,1
GENERATED VIA SPACETRACK.ORG API,18 SPCS,50803,STARLINK-3321,PAYLOAD,U,22001A,2023-11-07 13:10:35,896512,15.08831349,0.0001297,53.2182,39.0181,86.5208,273.5933,0,999,10161,0.0021274,0.00033724,0.0,4076432,0 STARLINK-3321,1 50803U 22001A   23311.54902658  .00033724  00000-0  21274-2 0  9997,2 50803  53.2182  39.0181 0001297  86.5208 273.5933 15.08831349101612,2022-001A,50803,6917.907,95.438,540.669,538.875,1
GENERATED VIA SPACETRACK.ORG API,18 SPCS,50803,STARLINK-3321,PAYLOAD,U,22001A,2023-11-07 22:42:54,765216,15.08848659,0.0001434,53.2189,37.2359,91.989,268.1266,0,999,10294,0.0014046,0.00022142,0.0,4077256,0 STARLINK-3321,1 50803U 22001A   23311.94646719  .00022142  00000-0  14046-2 0  9995,2 50803  53.2189  37.2359 0001434  91.9890 268.1266 15.08848659102944,2022-001A,50803,6917.854,95.437,540.711,538.727,1
GENERATED VIA SPACETRACK.ORG API,18 SPCS,50803,STARLINK-3321,PAYLOAD,U,22001A,2023-11-08 13:01:22,342080,15.08873556,0.0001415,53.2188,34.5588,88.3628,271.7526,0,999,10176,0.0016741,0.0002648,0.0,4078352,0 STARLINK-3321,1 50803U 22001A   23312.54261970  .00026480  00000-0  16741-2 0  9997,2 50803  53.2188  34.5588 0001415  88.3628 271.7526 15.08873556101767,2022-001A,50803,6917.778,95.435,540.622,538.664,1
GENERATED VIA SPACETRACK.ORG API,18 SPCS,50803,STARLINK-3321,PAYLOAD,U,22001A,2023-11-08 22:33:40,677696,15.08871384,0.0001433,53.2189,32.7757,100.724,259.3914,0,999,10182,0.00075403,0.00011743,0.0,4078917,0 STARLINK-3321,1 50803U 22001A   23312.94005414  .00011743  00000-0  75403-3 0  9997,2 50803  53.2189  32.7757 0001433 100.7240 259.3914 15.08871384101822,2022-001A,50803,6917.784,95.436,540.641,538.658,1
GENERATED VIA SPACETRACK.ORG API,18 SPCS,50803,STARLINK-3321,PAYLOAD,U,22001A,2023-11-08 22:33:40,677696,15.08871384,0.0001433,53.2189,32.7757,100.724,259.3914,0,999,10309,0.00075403,0.00011743,0.0,4078955,0 STARLINK-3321,1 50803U 22001A   23312.94005414  .00011743  00000-0  75403-3 0  9997,2 50803  53.2189  32.7757 0001433 100.7240 259.3914 15.08871384103093,2022-001A,50803,6917.784,95.436,540.641,538.658,1
GENERATED VIA SPACETRACK.ORG API,18 SPCS,50803,STARLINK-3321,PAYLOAD,U,22001A,2023-11-09 11:16:45,509952,15.08865206,0.0001521,53.219,30.402,104.439,255.6771,0,999,10317,0.0015408,0.00024336,0.0,4079619,0 STARLINK-3321,1 50803U 22001A   23313.46997118  .00024336  00000-0  15408-2 0  9996,2 50803  53.2190  30.4020 0001521 104.4390 255.6771 15.08865206103173,2022-001A,50803,6917.803,95.436,540.721,538.616,1
GENERATED VIA SPACETRACK.ORG API,18 SPCS,50803,STARLINK-3321,PAYLOAD,U,22001A,2023-11-09 12:52:08,531904,15.08866055,0.0001375,53.2183,30.1045,105.2821,254.8324,0,999,10191,0.0016419,0.00025958,0.0,4080359,0 STARLINK-3321,1 50803U 22001A   23313.53620986  .00025958  00000-0  16419-2 0  9994,2 50803  53.2183  30.1045 0001375 105.2821 254.8324 15.08866055101912,2022-001A,50803,6917.801,95.436,540.617,538.715,1
GENERATED VIA SPACETRACK.ORG API,18 SPCS,50803,STARLINK-3321,PAYLOAD,U,22001A,2023-11-09 22:24:27,404928,15.08855256,0.00016,53.2187,28.3159,80.4629,279.6544,0,999,10197,0.0011203,0.00017594,0.0,4080838,0 STARLINK-3321,1 50803U 22001A   23313.93365052  .00017594  00000-0  11203-2 0  9991,2 50803  53.2187  28.3159 0001600  80.4629 279.6544 15.08855256101978,2022-001A,50803,6917.834,95.437,540.806,538.592,1
